O3B FM5                 
1 39188U 13031A   22208.85506399 -.00000023  00000+0  00000+0 0  9990
2 39188   0.0523  24.1951 0002568 103.4638 232.3621  5.00115318166072
O3B FM4                 
1 39189U 13031B   22208.91114510 -.00000023  00000+0  00000+0 0  9998
2 39189   0.0569 354.8148 0002519 131.6893 233.5169  5.00115839165994
O3B FM2                 
1 39190U 13031C   22208.59470798 -.00000024  00000+0  00000+0 0  9998
2 39190   0.0599 350.8897 0001073 123.4328 245.6865  4.99476825166048
O3B PFM                 
1 39191U 13031D   22208.62906433 -.00000024  00000+0  00000+0 0  9993
2 39191   0.0507  14.3446 0002650 111.2729 234.4050  5.00115757165602
O3B FM3                 
1 40079U 14038A   22208.48391620 -.00000024  00000+0  00000+0 0  9998
2 40079   0.0547   2.5697 0005059 120.8523 236.6242  5.00115431141963
O3B FM7                 
1 40080U 14038B   22208.62987842 -.00000024  00000+0  00000+0 0  9993
2 40080   0.0588   0.7572 0000971 157.5078 201.7369  5.00115525146818
O3B FM6                 
1 40081U 14038C   22208.65625279 -.00000024  00000+0  00000+0 0  9990
2 40081   0.0543   1.6074 0002689 125.3987 233.0163  5.00115448146765
O3B FM8                 
1 40082U 14038D   22208.71020650 -.00000024  00000+0  00000+0 0  9990
2 40082   0.0542 358.1891 0002691 125.0035 236.8310  5.00115707146871
O3B FM10                
1 40348U 14083A   22208.53631896 -.00000024  00000+0  00000+0 0  9995
2 40348   0.0481   9.1442 0002632 116.5864 234.2917  5.00115220138824
O3B FM11                
1 40349U 14083B   22208.54979968 -.00000024  00000+0  00000+0 0  9992
2 40349   0.0524  11.2091 0002212 128.0340 220.7712  5.00115461138839
O3B FM12                
1 40350U 14083C   22208.77688489 -.00000024  00000+0  00000+0 0  9994
2 40350   0.0522  10.1598 0002677 119.4012 230.4604  5.00115332138851
O3B FM9                 
1 40351U 14083D   22209.00372440 -.00000023  00000+0  00000+0 0  9998
2 40351   0.0534  11.9917 0002582 115.2976 232.7320  5.00115688139021
DIAMOND RED             
1 42783U 17036U   22209.05987962  .00004720  00000+0  17486-3 0  9993
2 42783  97.1968 248.4684 0010586 175.6314 184.5021 15.28059985283140
DIAMOND GREEN           
1 42785U 17036W   22208.07700840  .00005426  00000+0  20103-3 0  9998
2 42785  97.1973 247.5830 0010289 180.0278 180.0963 15.27994330283068
DIAMOND BLUE            
1 42786U 17036X   22208.86199082  .00005114  00000+0  18949-3 0  9995
2 42786  97.1971 248.3332 0010395 177.8720 182.2566 15.28015259283188
LEO VANTAGE 1           
1 43113U 18004C   22208.88658086  .00001365  00000+0  11466-3 0  9993
2 43113  99.2464 293.2190 0402016  69.9324 294.4664 14.53982009230113
O3B FM15                
1 43231U 18024A   22208.66990271 -.00000024  00000+0  00000+0 0  9997
2 43231   0.0447   7.9155 0002881 120.8142 231.2938  5.00116077 79960
O3B FM16                
1 43232U 18024B   22208.52338845 -.00000024  00000+0  00000+0 0  9996
2 43232   0.0406   7.5165 0002844 121.3566 231.1500  5.00115923 79871
O3B FM14                
1 43233U 18024C   22208.56296392 -.00000024  00000+0  00000+0 0  9991
2 43233   0.0393   6.3928 0002655 123.4705 230.1578  5.00115327 79882
O3B FM13                
1 43234U 18024D   22208.01678119 -.00000024  00000+0  00000+0 0  9993
2 43234   0.0510  40.2456 0003497  99.1240 220.6543  5.00115073 79979
O3B FM20                
1 44112U 19020A   22208.58969170 -.00000024  00000+0  00000+0 0  9998
2 44112   0.0481   8.4079 0002874 127.7345 223.8782  5.00115474 60505
O3B FM19                
1 44113U 19020B   22206.61753958 -.00000025  00000+0  00000+0 0  9997
2 44113   0.0543  24.2101 0001731 102.1389 233.6648  5.00115053 60270
O3B FM17                
1 44114U 19020C   22208.49712171 -.00000024  00000+0  00000+0 0  9997
2 44114   0.0441 344.0810 0002977 145.7360 230.2069  5.00115593 60452
O3B FM18                
1 44115U 19020D   22208.64355104 -.00000024  00000+0  00000+0 0  9994
2 44115   0.0483   8.8502 0002879 117.3467 233.8274  5.00115813 60582
SALSAT                  
1 46495U 20068K   22208.79784809  .00001407  00000+0  10431-3 0  9993
2 46495  97.7299 150.1170 0017355 137.3423 222.9154 15.04653501100255
